PHISAT 2                
1 60470U 24149C   26068.78834181  .00008925  00000+0  31421-3 0  9996
2 60470  97.3806 148.6498 0001175 168.6230 191.5037 15.29548631 86792
STARLINK-32293          
1 61526U 24183T   26068.46770164 -.00002615  00000+0 -76268-4 0  9993
2 61526  53.1615 143.8124 0001565  89.0500 271.0680 15.30172137 79612
